GLOBALSTAR M024         
1 25883U 99043A   25034.13862002 -.00000075  00000+0 -37479-3 0  9993
2 25883  52.0055 323.0858 0000950 236.0428 231.4431 11.10166274 99974
GLOBALSTAR M027         
1 25884U 99043B   25034.26609218 -.00000061  00000+0  11196-3 0  9998
2 25884  52.0235  36.9814 0021512 135.2227 225.0306 11.04370869126444
GLOBALSTAR M054         
1 25885U 99043C   25034.58693940 -.00000055  00000+0  41193-3 0  9992
2 25885  52.0114 185.9877 0004783 313.3371 126.5383 11.39216335104154
GLOBALSTAR M053         
1 25886U 99043D   25034.59005428 -.00000040  00000+0  83909-3 0  9997
2 25886  51.9980 125.6628 0003634 199.6375 269.9434 11.27662789104370
GLOBALSTAR M058         
1 25907U 99049A   25034.35979055  .00000050  00000+0  18124-2 0  9993
2 25907  51.9938 106.5288 0001719  40.5774 319.5188 11.93196989525569
GLOBALSTAR M050         
1 25908U 99049B   25034.44483961 -.00000135  00000+0 -52761-3 0  9992
2 25908  51.9987 123.9689 0009929 125.4623 315.7887 12.07447956132038
GLOBALSTAR M033         
1 25909U 99049C   25034.26399192 -.00000176  00000+0 -80713-3 0  9998
2 25909  51.9944   5.5470 0013253 348.6341  11.4206 12.20289896519391
GLOBALSTAR M055         
1 25910U 99049D   25034.35465105 -.00000068  00000+0  22307-3 0  9992
2 25910  52.0040  22.5548 0006899 212.6877 147.3548 12.29420126151829
